[{"OBJECT_NAME":"EDISON-1","OBJECT_ID":"2025-009B","EPOCH":"2026-03-09T19:16:13.822464","MEAN_MOTION":15.29042904,"ECCENTRICITY":0.00043285,"INCLINATION":97.4042,"RA_OF_ASC_NODE":151.6286,"ARG_OF_PERICENTER":306.4185,"MEAN_ANOMALY":53.6655,"EPHEMERIS_TYPE":0,"CLASSIFICATION_TYPE":"U","NORAD_CAT_ID":62610,"ELEMENT_SET_NO":999,"REV_AT_EPOCH":6375,"BSTAR":0.00052814963,"MEAN_MOTION_DOT":0.00014835,"MEAN_MOTION_DDOT":0},{"OBJECT_NAME":"STARLINK-36063","OBJECT_ID":"2025-270U","EPOCH":"2026-03-09T00:11:02.414112","MEAN_MOTION":15.27597926,"ECCENTRICITY":5.016e-5,"INCLINATION":42.9991,"RA_OF_ASC_NODE":59.8441,"ARG_OF_PERICENTER":247.3094,"MEAN_ANOMALY":112.7705,"EPHEMERIS_TYPE":0,"CLASSIFICATION_TYPE":"U","NORAD_CAT_ID":66606,"ELEMENT_SET_NO":999,"REV_AT_EPOCH":1760,"BSTAR":0.00082352276,"MEAN_MOTION_DOT":0.00022481,"MEAN_MOTION_DDOT":0}]
